[{"OBJECT_NAME":"OTTER","OBJECT_ID":"2025-009Q","EPOCH":"2026-03-09T17:21:07.902432","MEAN_MOTION":15.27809545,"ECCENTRICITY":0.00035728,"INCLINATION":97.4065,"RA_OF_ASC_NODE":151.3812,"ARG_OF_PERICENTER":310.771,"MEAN_ANOMALY":49.3219,"EPHEMERIS_TYPE":0,"CLASSIFICATION_TYPE":"U","NORAD_CAT_ID":62623,"ELEMENT_SET_NO":999,"REV_AT_EPOCH":6372,"BSTAR":0.00045151206,"MEAN_MOTION_DOT":0.00012198,"MEAN_MOTION_DDOT":0},{"OBJECT_NAME":"STARLINK-36105","OBJECT_ID":"2025-281C","EPOCH":"2026-03-09T03:58:20.583264","MEAN_MOTION":15.27596539,"ECCENTRICITY":0.000189,"INCLINATION":43.0051,"RA_OF_ASC_NODE":346.585,"ARG_OF_PERICENTER":259.7852,"MEAN_ANOMALY":100.2787,"EPHEMERIS_TYPE":0,"CLASSIFICATION_TYPE":"U","NORAD_CAT_ID":66850,"ELEMENT_SET_NO":999,"REV_AT_EPOCH":1610,"BSTAR":0.0011061971,"MEAN_MOTION_DOT":0.00030319,"MEAN_MOTION_DDOT":0}]
